STARLINK-31815          
1 59801U 24093V   26068.42716813  .00000738  00000+0  36342-4 0  9994
2 59801  43.0003 210.5145 0001358 281.4002  78.6697 15.27576930102659
2025-155V               
1 64895U 25155V   26068.85787115  .00013705  00000+0  51002-3 0  9990
2 64895  97.4485  37.2490 0008035 152.8264 207.3397 15.27583301 65579
